start=new Date('2022-02-21T00:00:00.000Z').valueOf();
sats=[{"RA_OF_ASC_NODE":"171.2933","RCS_SIZE":"LARGE","ARG_OF_PERICENTER":"67.9833","DECAY_DATE":null,"SEMIMAJOR_AXIS":"6925.356","SITE":"AFETR","MEAN_MOTION_DDOT":"0.0000000000000","CENTER_NAME":"EARTH","MEAN_MOTION_DOT":"0.00000242","EPHEMERIS_TYPE":"0","MEAN_ELEMENT_THEORY":"SGP4","ECCENTRICITY":"0.00012320","EPOCH":"2022-02-20T18:17:29.948352","COUNTRY_CODE":"US","CLASSIFICATION_TYPE":"U","TIME_SYSTEM":"UTC","OBJECT_NAME":"STARLINK-1661","PERIAPSIS":"546.368","APOAPSIS":"548.074","INCLINATION":"53.0545","MEAN_ANOMALY":"292.1287","FILE":"3310556","MEAN_MOTION":"15.06397622","TLE_LINE1":"1 46355U 20062AG  22051.76215218  .00000242  00000-0  35139-4 0  9998","REF_FRAME":"TEME","TLE_LINE2":"2 46355  53.0545 171.2933 0001232  67.9833 292.1287 15.06397622 81558","BSTAR":"0.00003513900000","ELEMENT_SET_NO":"999","REV_AT_EPOCH":"8155","OBJECT_ID":"2020-062AG","LAUNCH_DATE":"2020-09-03","NORAD_CAT_ID":"46355","OBJECT_TYPE":"PAYLOAD","GP_ID":"196511753","PERIOD":"95.592"},{"PERIOD":"95.592","GP_ID":"196511781","NORAD_CAT_ID":"46356","OBJECT_TYPE":"PAYLOAD","LAUNCH_DATE":"2020-09-03","ELEMENT_SET_NO":"999","BSTAR":"0.00037248000000","REV_AT_EPOCH":"8154","OBJECT_ID":"2020-062AH","REF_FRAME":"TEME","TLE_LINE2":"2 46356  53.0523 171.5382 0001426  69.1761 290.9380 15.06405203 81549","MEAN_MOTION":"15.06405203","TLE_LINE1":"1 46356U 20062AH  22051.70686502  .00005272  00000-0  37248-3 0  9991","INCLINATION":"53.0523","MEAN_ANOMALY":"290.9380","FILE":"3310556","PERIAPSIS":"546.210","APOAPSIS":"548.185","CLASSIFICATION_TYPE":"U","COUNTRY_CODE":"US","TIME_SYSTEM":"UTC","OBJECT_NAME":"STARLINK-1665","EPOCH":"2022-02-20T16:57:53.137728","EPHEMERIS_TYPE":"0","MEAN_ELEMENT_THEORY":"SGP4","ECCENTRICITY":"0.00014260","CENTER_NAME":"EARTH","MEAN_MOTION_DOT":"0.00005272","SITE":"AFETR","MEAN_MOTION_DDOT":"0.0000000000000","DECAY_DATE":null,"SEMIMAJOR_AXIS":"6925.333","RA_OF_ASC_NODE":"171.5382","RCS_SIZE":"LARGE","ARG_OF_PERICENTER":"69.1761"},{"EPOCH":"2022-02-20T16:55:12.813024","MEAN_ELEMENT_THEORY":"SGP4","ECCENTRICITY":"0.00015280","EPHEMERIS_TYPE":"0","PERIAPSIS":"546.134","APOAPSIS":"548.250","TIME_SYSTEM":"UTC","OBJECT_NAME":"STARLINK-1666","COUNTRY_CODE":"US","CLASSIFICATION_TYPE":"U","SEMIMAJOR_AXIS":"6925.327","DECAY_DATE":null,"ARG_OF_PERICENTER":"53.8597","RA_OF_ASC_NODE":"151.5542","RCS_SIZE":"LARGE","MEAN_MOTION_DOT":"-0.00000180","CENTER_NAME":"EARTH","SITE":"AFETR","MEAN_MOTION_DDOT":"0.0000000000000","OBJECT_TYPE":"PAYLOAD","NORAD_CAT_ID":"46357","LAUNCH_DATE":"2020-09-03","PERIOD":"95.592","GP_ID":"196512032","MEAN_MOTION":"15.06407120","TLE_LINE1":"1 46357U 20062AJ  22051.70500941 -.00000180  00000-0  68275-5 0  9994","FILE":"3310556","MEAN_ANOMALY":"306.2534","INCLINATION":"53.0534","REV_AT_EPOCH":"8182","OBJECT_ID":"2020-062AJ","BSTAR":"0.00000682750000","ELEMENT_SET_NO":"999","TLE_LINE2":"2 46357  53.0534 151.5542 0001528  53.8597 306.2534 15.06407120 81821","REF_FRAME":"TEME"},{"LAUNCH_DATE":"2020-09-03","NORAD_CAT_ID":"46358","OBJECT_TYPE":"PAYLOAD","GP_ID":"196513285","PERIOD":"95.592","MEAN_ANOMALY":"302.6149","INCLINATION":"53.0533","FILE":"3310556","TLE_LINE1":"1 46358U 20062AK  22051.75108696 -.00000302  00000-0 -13809-5 0  9991","MEAN_MOTION":"15.06398726","REF_FRAME":"TEME","TLE_LINE2":"2 46358  53.0533 171.3328 0001511  57.4986 302.6149 15.06398726 81550","BSTAR":"-0.00000138090000","ELEMENT_SET_NO":"999","OBJECT_ID":"2020-062AK","REV_AT_EPOCH":"8155","EPHEMERIS_TYPE":"0","MEAN_ELEMENT_THEORY":"SGP4","ECCENTRICITY":"0.00015110","EPOCH":"2022-02-20T18:01:33.913344","CLASSIFICATION_TYPE":"U","COUNTRY_CODE":"US","TIME_SYSTEM":"UTC","OBJECT_NAME":"STARLINK-1690","APOAPSIS":"548.264","PERIAPSIS":"546.171","RCS_SIZE":"LARGE","RA_OF_ASC_NODE":"171.3328","ARG_OF_PERICENTER":"57.4986","DECAY_DATE":null,"SEMIMAJOR_AXIS":"6925.352","MEAN_MOTION_DDOT":"0.0000000000000","SITE":"AFETR","CENTER_NAME":"EARTH","MEAN_MOTION_DOT":"-0.00000302"},{"CLASSIFICATION_TYPE":"U","COUNTRY_CODE":"US","TIME_SYSTEM":"UTC","OBJECT_NAME":"STARLINK-1707","APOAPSIS":"548.542","PERIAPSIS":"545.920","EPHEMERIS_TYPE":"0","MEAN_ELEMENT_THEORY":"SGP4","ECCENTRICITY":"0.00018930","EPOCH":"2022-02-20T17:33:03.831840","MEAN_MOTION_DDOT":"0.0000000000000","SITE":"AFETR","CENTER_NAME":"EARTH","MEAN_MOTION_DOT":"0.00000699","RCS_SIZE":"LARGE","RA_OF_ASC_NODE":"126.4369","ARG_OF_PERICENTER":"44.4389","DECAY_DATE":null,"SEMIMAJOR_AXIS":"6925.366","GP_ID":"196512254","PERIOD":"95.593","LAUNCH_DATE":"2020-09-03","NORAD_CAT_ID":"46359","OBJECT_TYPE":"PAYLOAD","REF_FRAME":"TEME","TLE_LINE2":"2 46359  53.0537 126.4369 0001893  44.4389 315.6752 15.06394208 82171","BSTAR":"0.00006584100000","ELEMENT_SET_NO":"999","OBJECT_ID":"2020-062AL","REV_AT_EPOCH":"8217","INCLINATION":"53.0537","MEAN_ANOMALY":"315.6752","FILE":"3310556","TLE_LINE1":"1 46359U 20062AL  22051.73129435  .00000699  00000-0  65841-4 0  9993","MEAN_MOTION":"15.06394208"},{"GP_ID":"196512282","PERIOD":"95.592","LAUNCH_DATE":"2020-09-03","NORAD_CAT_ID":"46360","OBJECT_TYPE":"PAYLOAD","REF_FRAME":"TEME","TLE_LINE2":"2 46360  53.0534 126.6368 0001585  52.4725 307.6408 15.06407895 82178","BSTAR":"0.00023935000000","ELEMENT_SET_NO":"999","REV_AT_EPOCH":"8217","OBJECT_ID":"2020-062AM","MEAN_ANOMALY":"307.6408","INCLINATION":"53.0534","FILE":"3310556","MEAN_MOTION":"15.06407895","TLE_LINE1":"1 46360U 20062AM  22051.68705035  .00003286  00000-0  23935-3 0  9997","COUNTRY_CODE":"US","CLASSIFICATION_TYPE":"U","OBJECT_NAME":"STARLINK-1713","TIME_SYSTEM":"UTC","PERIAPSIS":"546.092","APOAPSIS":"548.287","EPHEMERIS_TYPE":"0","ECCENTRICITY":"0.00015850","MEAN_ELEMENT_THEORY":"SGP4","EPOCH":"2022-02-20T16:29:21.150240","SITE":"AFETR","MEAN_MOTION_DDOT":"0.0000000000000","CENTER_NAME":"EARTH","MEAN_MOTION_DOT":"0.00003286","RA_OF_ASC_NODE":"126.6368","RCS_SIZE":"LARGE","ARG_OF_PERICENTER":"52.4725","SEMIMAJOR_AXIS":"6925.324","DECAY_DATE":null},{"PERIOD":"95.592","GP_ID":"196512533","NORAD_CAT_ID":"46361","OBJECT_TYPE":"PAYLOAD","LAUNCH_DATE":"2020-09-03","ELEMENT_SET_NO":"999","BSTAR":"0.00020472000000","REV_AT_EPOCH":"8215","OBJECT_ID":"2020-062AN","REF_FRAME":"TEME","TLE_LINE2":"2 46361  53.0550 127.0722 0001507  66.8881 293.2267 15.06405177 82154","MEAN_MOTION":"15.06405177","TLE_LINE1":"1 46361U 20062AN  22051.59122187  .00002769  00000-0  20472-3 0  9997","MEAN_ANOMALY":"293.2267","INCLINATION":"53.0550","FILE":"3310556","PERIAPSIS":"546.154","APOAPSIS":"548.241","COUNTRY_CODE":"US","CLASSIFICATION_TYPE":"U","OBJECT_NAME":"STARLINK-1722","TIME_SYSTEM":"UTC","EPOCH":"2022-02-20T14:11:21.569568","EPHEMERIS_TYPE":"0","ECCENTRICITY":"0.00015070","MEAN_ELEMENT_THEORY":"SGP4","CENTER_NAME":"EARTH","MEAN_MOTION_DOT":"0.00002769","SITE":"AFETR","MEAN_MOTION_DDOT":"0.0000000000000","DECAY_DATE":null,"SEMIMAJOR_AXIS":"6925.333","RA_OF_ASC_NODE":"127.0722","RCS_SIZE":"LARGE","ARG_OF_PERICENTER":"66.8881"},{"CENTER_NAME":"EARTH","MEAN_MOTION_DOT":"0.00001676","SITE":"AFETR","MEAN_MOTION_DDOT":"0.0000000000000","SEMIMAJOR_AXIS":"6925.325","DECAY_DATE":null,"RA_OF_ASC_NODE":"127.4483","RCS_SIZE":"LARGE","ARG_OF_PERICENTER":"62.6500","PERIAPSIS":"546.082","APOAPSIS":"548.298","CLASSIFICATION_TYPE":"U","COUNTRY_CODE":"US","TIME_SYSTEM":"UTC","OBJECT_NAME":"STARLINK-1726","EPOCH":"2022-02-20T12:03:57.358080","EPHEMERIS_TYPE":"0","MEAN_ELEMENT_THEORY":"SGP4","ECCENTRICITY":"0.00016000","ELEMENT_SET_NO":"999","BSTAR":"0.00013136000000","REV_AT_EPOCH":"8214","OBJECT_ID":"2020-062AP","REF_FRAME":"TEME","TLE_LINE2":"2 46362  53.0545 127.4483 0001600  62.6500 297.4652 15.06407689 82146","MEAN_MOTION":"15.06407689","TLE_LINE1":"1 46362U 20062AP  22051.50274720  .00001676  00000-0  13136-3 0  9995","MEAN_ANOMALY":"297.4652","INCLINATION":"53.0545","FILE":"3310073","PERIOD":"95.592","GP_ID":"196477475","NORAD_CAT_ID":"46362","OBJECT_TYPE":"PAYLOAD","LAUNCH_DATE":"2020-09-03"},{"NORAD_CAT_ID":"46363","OBJECT_TYPE":"PAYLOAD","LAUNCH_DATE":"2020-09-03","PERIOD":"95.592","GP_ID":"196511754","MEAN_MOTION":"15.06404041","TLE_LINE1":"1 46363U 20062AQ  22051.62807313 -.00000222  00000-0  40014-5 0  9993","MEAN_ANOMALY":"306.5299","INCLINATION":"53.0528","FILE":"3310556","BSTAR":"0.00000400140000","ELEMENT_SET_NO":"999","REV_AT_EPOCH":"8216","OBJECT_ID":"2020-062AQ","REF_FRAME":"TEME","TLE_LINE2":"2 46363  53.0528 126.8874 0001494  53.5828 306.5299 15.06404041 82168","EPOCH":"2022-02-20T15:04:25.518432","EPHEMERIS_TYPE":"0","ECCENTRICITY":"0.00014940","MEAN_ELEMENT_THEORY":"SGP4","PERIAPSIS":"546.167","APOAPSIS":"548.236","CLASSIFICATION_TYPE":"U","COUNTRY_CODE":"US","OBJECT_NAME":"STARLINK-1739","TIME_SYSTEM":"UTC","SEMIMAJOR_AXIS":"6925.336","DECAY_DATE":null,"RA_OF_ASC_NODE":"126.8874","RCS_SIZE":"LARGE","ARG_OF_PERICENTER":"53.5828","CENTER_NAME":"EARTH","MEAN_MOTION_DOT":"-0.00000222","SITE":"AFETR","MEAN_MOTION_DDOT":"0.0000000000000"},{"TLE_LINE1":"1 46364U 20062AR  22051.85014432  .00001602  00000-0  12651-3 0  9997","MEAN_MOTION":"15.06402966","FILE":"3310556","MEAN_ANOMALY":"287.7521","INCLINATION":"53.0509","OBJECT_ID":"2020-062AR","REV_AT_EPOCH":"8247","ELEMENT_SET_NO":"999","BSTAR":"0.00012651000000","TLE_LINE2":"2 46364  53.0509 105.9676 0006784  72.4208 287.7521 15.06402966 82471","REF_FRAME":"TEME","OBJECT_TYPE":"PAYLOAD","NORAD_CAT_ID":"46364","LAUNCH_DATE":"2020-09-03","PERIOD":"95.592","GP_ID":"196511782","SEMIMAJOR_AXIS":"6925.339","DECAY_DATE":null,"ARG_OF_PERICENTER":"72.4208","RCS_SIZE":"LARGE","RA_OF_ASC_NODE":"105.9676","MEAN_MOTION_DOT":"0.00001602","CENTER_NAME":"EARTH","MEAN_MOTION_DDOT":"0.0000000000000","SITE":"AFETR","EPOCH":"2022-02-20T20:24:12.469248","ECCENTRICITY":"0.00067840","MEAN_ELEMENT_THEORY":"SGP4","EPHEMERIS_TYPE":"0","APOAPSIS":"551.903","PERIAPSIS":"542.506","TIME_SYSTEM":"UTC","OBJECT_NAME":"STARLINK-1763","COUNTRY_CODE":"US","CLASSIFICATION_TYPE":"U"}];
